OBJECT_NAME,OBJECT_ID,EPOCH,MEAN_MOTION,ECCENTRICITY,INCLINATION,RA_OF_ASC_NODE,ARG_OF_PERICENTER,MEAN_ANOMALY,EPHEMERIS_TYPE,CLASSIFICATION_TYPE,NORAD_CAT_ID,ELEMENT_SET_NO,REV_AT_EPOCH,BSTAR,MEAN_MOTION_DOT,MEAN_MOTION_DDOT
ONEWEB-0721,2023-068R,2026-07-22T22:14:22.188480,13.22471372,.00017142,86.6737,74.1048,82.1072,278.0256,0,U,56725,999,16266,-.24107843E-3,-.86E-6,0
ONEWEB-0015,2024-188A,2026-07-22T00:35:16.196064,13.11414931,.00013566,87.8886,14.1549,81.3582,278.7700,0,U,61594,999,8902,-.54887423E-4,-.7E-7,0
ONEWEB-0687,2024-188B,2026-07-22T20:16:34.381632,13.17648001,.00017471,87.9153,358.7814,78.9972,281.1356,0,U,61595,999,9059,-.29148041E-4,.2E-7,0
ONEWEB-0688,2024-188C,2026-07-22T20:57:52.275744,13.17647434,.0000744,87.9150,358.7763,66.3795,293.7415,0,U,61596,999,9059,-.18962368E-4,.6E-7,0
ONEWEB-0689,2024-188D,2026-07-22T21:32:37.828320,13.11418778,.00019858,87.8904,13.9437,84.0961,276.0393,0,U,61597,999,8913,-.77875049E-3,-.263E-5,0
ONEWEB-0690,2024-188E,2026-07-22T21:47:17.998080,13.11418991,.00018195,87.8900,13.9524,112.6153,247.5168,0,U,61598,999,8931,.3921029E-3,.152E-5,0
ONEWEB-0691,2024-188F,2026-07-22T21:39:58.565088,13.11418516,.00015417,87.8911,13.8657,83.1767,276.9537,0,U,61599,999,8916,-.16442642E-3,-.46E-6,0
ONEWEB-0692,2024-188G,2026-07-22T22:09:15.741504,13.11418352,.00026047,87.8891,13.9681,90.3370,269.8057,0,U,61600,999,8915,.17496012E-2,.633E-5,0
ONEWEB-0693,2024-188H,2026-07-22T21:14:53.702592,13.17648315,.00017464,87.9147,358.7920,121.5599,238.5703,0,U,61601,999,9058,.3890477E-5,.14E-6,0
ONEWEB-0695,2024-188J,2026-07-22T21:35:05.021088,13.11418712,.00022755,87.8888,13.9649,84.9022,275.2365,0,U,61602,999,8914,-.65384177E-3,-.219E-5,0
ONEWEB-0697,2024-188K,2026-07-22T16:51:52.939584,13.11416048,.00025904,87.8892,13.9945,93.1390,267.0035,0,U,61603,999,8910,.14509422E-2,.527E-5,0
ONEWEB-0698,2024-188L,2026-07-21T23:51:20.481120,13.11418373,.00027185,87.8886,14.1489,112.0630,248.0787,0,U,61604,999,8903,.1100213E-2,.403E-5,0
ONEWEB-0699,2024-188M,2026-07-22T19:08:54.242592,13.10376638,.00024656,87.8823,29.1684,93.1861,266.9548,0,U,61605,999,8797,.61202661E-3,.226E-5,0
ONEWEB-0700,2024-188N,2026-07-22T06:21:41.192640,13.10374258,.00023771,87.8840,29.1894,92.4427,267.6973,0,U,61606,999,8789,.12297303E-2,.442E-5,0
ONEWEB-0701,2024-188P,2026-07-22T01:16:15.060576,13.10370945,.00026033,87.8821,29.3172,95.5937,264.5487,0,U,61607,999,8787,.16887889E-2,.602E-5,0
ONEWEB-0702,2024-188Q,2026-07-21T17:37:46.652736,13.11416326,.00028846,87.8908,14.1129,88.6940,271.4519,0,U,61608,999,8901,-.15010254E-2,-.519E-5,0
ONEWEB-0704,2024-188R,2026-07-22T11:58:51.966048,13.10373848,.00028302,87.8826,29.2187,83.5424,276.6025,0,U,61609,999,8791,.16569545E-2,.591E-5,0
ONEWEB-0705,2024-188S,2026-07-22T19:26:01.601664,13.10373426,.00024962,87.8828,29.1629,68.1722,291.9670,0,U,61610,999,8012,.18764606E-2,.668E-5,0
ONEWEB-0706,2024-188T,2026-07-22T11:44:11.683968,13.10375288,.00022304,87.8835,29.2301,81.1784,278.9596,0,U,61611,999,8800,.69713817E-3,.256E-5,0
ONEWEB-0707,2024-188U,2026-07-22T11:53:58.312320,13.10373885,.00023483,87.8828,29.2242,83.1081,277.0314,0,U,61612,999,8794,.13359148E-2,.479E-5,0
ONEWEB-0708,2024-188V,2026-07-22T17:50:43.130400,13.10370192,.00018102,87.8816,29.1905,71.5757,288.5567,0,U,61613,999,8795,.16661271E-2,.594E-5,0
